GOES 14                 
1 35491U 09033A   26113.53353582 -.00000045  00000+0  00000+0 0  9992
2 35491   1.5505  83.6610 0001629 306.4044 185.9979  1.00115729  6047
EWS-G2 (GOES 15)        
1 36411U 10008A   26113.51184554  .00000010  00000+0  00000+0 0  9999
2 36411   1.1335  83.8447 0003733  24.1793 351.0516  1.00271944 59098
GOES 16                 
1 41866U 16071A   26113.47861054 -.00000103  00000+0  00000+0 0  9991
2 41866   0.2037  85.1977 0001639 243.0613 310.8581  1.00270845 34554
GOES 17                 
1 43226U 18022A   26113.44350172 -.00000195  00000+0  00000+0 0  9993
2 43226   0.7986  86.4382 0000712 260.8146 294.4048  1.00271503 29873
GOES 18                 
1 51850U 22021A   26113.54145336  .00000084  00000+0  00000+0 0  9990
2 51850   0.0421  65.5836 0000264  16.8346 187.0822  1.00271310  6044
GOES 19                 
1 60133U 24119A   26113.48786536 -.00000261  00000+0  00000+0 0  9998
2 60133   0.0016 194.4076 0000426 247.5948 229.9671  1.00270718  6417
